IRNSS-1F                
1 41384U 16015A   19246.84798947  .00000135  00000-0  00000-0 0  9990
2 41384   2.5909 236.1878 0019101 191.1305 253.1217  1.00276649 12845
BEIDOU IGSO-6           
1 41434U 16021A   19246.89248462 -.00000144  00000-0  00000+0 0  9990
2 41434  56.6379  63.5959 0035783 198.4093 138.3852  1.00275492 12633
IRNSS-1G                
1 41469U 16027A   19246.84226066 -.00000359  00000-0  00000+0 0  9993
2 41469   2.6328 238.6609 0005710 229.3667 307.3695  1.00268473 12343
JCSAT 2B                
1 41471U 16028A   19247.15933434 -.00000189  00000-0  00000+0 0  9997
2 41471   0.0187 135.9431 0001983  20.9497  37.4505  1.00270332 12244
THAICOM 8               
1 41552U 16031A   19247.14432976 -.00000144  00000-0  00000+0 0  9996
2 41552   0.0625  40.6595 0001977  46.5857  26.2011  1.00270763 11932
INTELSAT 31 (IS-31)     
1 41581U 16035A   19247.24146605 -.00000174  00000-0  00000+0 0  9997
2 41581   0.0390 258.2024 0000592 334.1759 102.5638  1.00272087 11840
BEIDOU-2 G7             
1 41586U 16037A   19247.20797569 -.00000377  00000-0  00000+0 0  9996
2 41586   0.9879  48.2464 0006499  11.3475 108.7138  1.00278274 11939
ABS-2A (MONGOLSAT-1)    
1 41588U 16038A   19246.64106587 -.00000107  00000-0  00000+0 0  9991
2 41588   0.0098 130.6237 0002597 307.0022 210.3349  1.00270040 11844
EUTELSAT 117 WEST B     
1 41589U 16038B   19247.35692447 -.00000035  00000-0  00000+0 0  9996
2 41589   0.0173  25.3039 0000233 195.1615 134.2175  1.00272877 11850
BRISAT                  
1 41591U 16039A   19246.87154317 -.00000221  00000-0  00000-0 0  9993
2 41591   0.0192 155.7807 0002040   2.3481 288.8232  1.00268930 11768
ECHOSTAR 18             
1 41592U 16039B   19246.90111608 -.00000305  00000-0  00000-0 0  9997
2 41592   0.0191 141.1015 0001433  13.7022  90.9720  1.00272044 11787
MUOS-5                  
1 41622U 16041A   19247.29470424 -.00000176  00000-0  00000+0 0  9996
2 41622   7.8462 310.2183 0207724 210.8172 183.1859  1.00271991 12227
TIANTONG-1 1            
1 41725U 16048A   19246.93356784 -.00000339  00000-0  00000-0 0  9991
2 41725   3.4017 329.7812 0001269 267.4311 182.9975  1.00267827 11411
JCSAT-16                
1 41729U 16050A   19247.44057212 -.00000379  00000-0  00000+0 0  9992
2 41729   0.0383  98.6252 0003079 129.1691  38.0970  1.00271025 11220
INTELSAT 36 (IS-36)     
1 41747U 16053A   19247.50124668 -.00000047  00000-0  00000+0 0  9994
2 41747   0.0143 119.6100 0002600 252.0619 220.6015  1.00270343 11114
INTELSAT 33E (IS-33E)   
1 41748U 16053B   19247.49958920  .00000026  00000-0  00000+0 0  9995
2 41748   0.0278  86.5237 0001883  66.0666  70.5807  1.00270847 11372
INSAT-3DR               
1 41752U 16054A   19247.50238074 -.00000100  00000-0  00000+0 0  9998
2 41752   0.0293 105.9356 0011077 160.9737 331.2377  1.00271260 10953
GSAT-18                 
1 41793U 16060A   19247.43062723 -.00000100  00000-0  00000+0 0  9998
2 41793   0.0119 172.7096 0002386 279.8316 119.7222  1.00272002 10687
SKY MUSTER 2            
1 41794U 16060B   19247.45583469 -.00000267  00000-0  00000+0 0  9990
2 41794   0.0172 225.5225 0001614 288.1828 138.4753  1.00271637 10727
HIMAWARI-9              
1 41836U 16064A   19246.94141906 -.00000299  00000-0  00000+0 0  9995
2 41836   0.0483 319.3066 0000964 213.9767 289.1374  1.00269629 10450
SHIJIAN-17 (SJ-17)      
1 41838U 16065A   19246.94342361 -.00000286  00000-0  00000-0 0  9993
2 41838   0.9390  95.5920 0001347  19.9342 301.0152  1.00266305 10387
GOES 16                 
1 41866U 16071A   19247.46021372 -.00000271  00000-0  00000+0 0  9998
2 41866   0.0029  97.7871 0000415  87.7285 248.2473  1.00271726 10269
TIANLIAN 1-04           
1 41869U 16072A   19247.12827348 -.00000131  00000-0  00000+0 0  9997
2 41869   0.8950 283.2902 0014871 177.0970   5.8949  1.00272343 10468
WGS F8 (USA 272)        
1 41879U 16075A   19247.15854921 -.00000226  00000-0  00000+0 0  9996
2 41879   0.0127 137.9901 0000123 337.2124  74.6694  1.00271483 10079
FENGYUN 4A              
1 41882U 16077A   19246.93417848 -.00000354  00000-0  00000-0 0  9993
2 41882   0.1216  86.3275 0001843  49.4531 288.0204  1.00270178 10133
ECHOSTAR 19             
1 41893U 16079A   19247.42209203 -.00000162  00000-0  00000+0 0  9992
2 41893   0.0188 145.0085 0001353   6.9215 246.1615  1.00272176  9899
JCSAT-15                
1 41903U 16082A   19247.43778057 -.00000374  00000-0  00000+0 0  9992
2 41903   0.0099 202.6657 0001421 315.7579  92.5029  1.00270685  9937
STAR ONE D1             
1 41904U 16082B   19247.46577087 -.00000234  00000-0  00000+0 0  9991
2 41904   0.0185 229.6794 0002379 240.4948 316.8047  1.00270239  9940
TJS-2                   
1 41911U 17001A   19247.36546203 -.00000366  00000-0  00000+0 0  9992
2 41911   0.2670  95.3311 0004855 292.8724 194.0067  1.00275389  9877
SBIRS GEO-3 (USA 273)   
1 41937U 17004A   19247.50362215  .00000107  00000-0  00000+0 0  9990
2 41937   4.3659 312.1018 0002463 201.6054 211.5076  1.00272462  9759
HISPASAT 36W-1          
1 41942U 17006A   19246.69079036 -.00000268  00000-0  00000+0 0  9992
2 41942   0.0167 325.0544 0000968 194.0917  36.0552  1.00271586  9676
TELKOM 3S               
1 41944U 17007A   19246.86508771 -.00000386  00000-0  00000+0 0  9998
2 41944   0.0214 250.0388 0002406 273.1518 248.9310  1.00273436  9367
INTELSAT 32E (IS-32E)   
1 41945U 17007B   19247.40724801 -.00000292  00000-0  00000+0 0  9990
2 41945   0.0159 144.3454 0000469 294.7302   7.5812  1.00269872  9402
ECHOSTAR 23             
1 42070U 17014A   19246.82801247 -.00000293  00000-0  00000-0 0  9995
2 42070   0.0195 141.4797 0002223  19.7683  51.5891  1.00270467  9089
WGS F9 (USA 275)        
1 42075U 17016A   19247.49897854  .00000050  00000-0  00000+0 0  9994
2 42075   0.0087 152.9116 0000507 311.5147 115.3381  1.00271543  9086
SES-10                  
1 42432U 17017A   19247.11536743 -.00000296  00000-0  00000+0 0  9991
2 42432   0.0197 127.3601 0002792  32.1603 158.0581  1.00269263  8903
CHINASAT 16 (SJ-13)     
1 42662U 17018A   19247.20016087 -.00000377  00000-0  00000+0 0  9991
2 42662   0.0211 106.5880 0007525 119.8980 299.1187  1.00291114  8890
KOREASAT 7              
1 42691U 17023A   19246.93812788 -.00000385  00000-0  00000-0 0  9990
2 42691   0.0222  93.1967 0001942  79.9570 263.2510  1.00271403  8520
SGDC                    
1 42692U 17023B   19247.25495702 -.00000273  00000-0  00000+0 0  9995
2 42692   0.0111 131.1714 0002152  23.2931 205.5462  1.00270100  8605
GSAT-9                  
1 42695U 17024A   19246.86090038 -.00000310  00000-0  00000-0 0  9991
2 42695   0.0550 268.4361 0002241 253.4608 228.0324  1.00273924  8462
INMARSAT 5-F4           
1 42698U 17025A   19246.78099229  .00000052  00000-0  00000+0 0  9998
2 42698   0.0013 196.8322 0000441  27.2456  96.1909  1.00272041  8404
SES-15                  
1 42709U 17026A   19246.63259557  .00000036  00000-0  00000+0 0  9990
2 42709   0.0337 288.8683 0000344 220.0509 292.1351  1.00269741  9337
QZS-2  (MICHIBIKI-2)    
1 42738U 17028A   19243.42531019 -.00000160  00000-0  00000+0 0  9993
2 42738  43.4784 278.4802 0753032 269.8906  84.1475  1.00270761  8255
VIASAT-2                
1 42740U 17029A   19247.24616736 -.00000288  00000-0  00000+0 0  9992
2 42740   0.0029 203.3410 0000209 188.7708 329.6788  1.00271488  8342
EUTELSAT 172B           
1 42741U 17029B   19247.55465792 -.00000030  00000-0  00000+0 0  9996
2 42741   0.0157 120.4981 0000175   3.5949 230.9555  1.00268515  8860
GSAT-19                 
1 42747U 17031A   19247.21001838  .00000102  00000-0  00000+0 0  9994
2 42747   0.0525 270.5635 0003944 184.8655  11.1044  1.00271354  8285
ECHOSTAR 21             
1 42749U 17032A   19247.34610637  .00000043  00000-0  00000+0 0  9998
2 42749   6.0668 314.2403 0002290 206.0313 317.7477  1.00273596  8275
CHINASAT 9A (ZX 9A)     
1 42763U 17035A   19246.93356784 -.00000336  00000-0  00000-0 0  9998
2 42763   0.0200 167.4103 0002689 321.8099 291.0771  1.00270420  8804
BULGARIASAT-1           
1 42801U 17038A   19246.84188295 -.00000012  00000-0  00000-0 0  9995
2 42801   0.0525 276.2756 0002712 240.3956 130.9779  1.00271423  7985
HELLAS-SAT 3            
1 42814U 17040A   19247.27980709  .00000129  00000-0  00000+0 0  9997
2 42814   0.0593  49.8770 0001921  42.5226  30.4178  1.00271389  8032
GSAT-17                 
1 42815U 17040B   19247.07550066 -.00000281  00000-0  00000+0 0  9995
2 42815   0.0206 244.1400 0003003 351.1102 228.3463  1.00270437  8026
INTELSAT 35E (IS-35E)   
1 42818U 17041A   19246.80327247 -.00000261  00000-0  00000-0 0  9991
2 42818   0.0381 231.2056 0001698 281.7118  84.3785  1.00273294  8021
COSMOS 2520             
1 42907U 17046A   19247.17087088  .00000114  00000-0  00000+0 0  9997
2 42907   0.0267 113.6271 0001377 255.0750  80.7450  1.00267939  7549
TDRS 13                 
1 42915U 17047A   19247.41361623 -.00000121  00000-0  00000+0 0  9993
2 42915   6.0087 330.3058 0013395  99.3402  51.0268  1.00271940  7535
QZS-3 (MICHIBIKI-3)     
1 42917U 17048A   19247.44118278 -.00000371  00000-0  00000+0 0  9992
2 42917   0.0642 224.6446 0001695 307.0911  97.3554  1.00275338  7523
AMAZONAS 5              
1 42934U 17053A   19246.90111608 -.00000306  00000-0  00000-0 0  9996
2 42934   0.0467 313.2397 0001759 206.4974  86.3738  1.00270890  7248
ASIASAT 9               
1 42942U 17057A   19247.29490500 -.00000383  00000-0  00000+0 0  9997
2 42942   0.0134 147.4420 0002066   7.6750  56.2332  1.00267657  7093
INTELSAT 37E (IS-37E)   
1 42950U 17059A   19247.16716064 -.00000164  00000-0  00000+0 0  9997
2 42950   0.0089 187.2475 0002688 336.3272 221.5971  1.00271774  7208
BSAT-4A                 
1 42951U 17059B   19247.43769333 -.00000373  00000-0  00000+0 0  9997
2 42951   0.0169   6.3295 0001997  98.0942 146.2540  1.00269375  7105
